- id: sat_spot_1
  name: SPOT 1
  norad_id: '16613'
  constellation: SPOT
  owner: FR
  tle_epoch: '2025-07-16T17:40:22.939Z'
  tle_line1: 1 16613U 86019A   25197.73637661  .00000631  00000-0  10166-3 0  9991
  tle_line2: 2 16613  98.6580 104.9995 0130407 236.0365 122.8390 14.70159755761689
  apogee_km: 752.0
  perigee_km: 569.0
  period_min: 98.0
  inclination_deg: 98.7
  swath_width_km: 60.0
  num_terminal: 1
  battery_capacity_wh: 1680.0
  storage_capacity_mb: 128000.0
  obs_store_rate_mb_per_min: 18000.0
  downlink_release_rate_mb_per_min: 15000.0
  charge_rate_w: 900.0
  idle_discharge_rate_w: 400.0
  obs_discharge_rate_w: 850.0
  downlink_discharge_rate_w: 100.0
  max_slew_velocity_deg_per_sec: 3.0
  max_slew_acceleration_deg_per_sec2: 1.5
  max_slew_jerk_deg_per_sec3: null
  settling_time_sec: 1.0
  initial_storage_mb: 64000.0
  initial_battery_wh: 840.0
- id: sat_spot_2
  name: SPOT 2
  norad_id: '20436'
  constellation: SPOT
  owner: FR
  tle_epoch: '2025-07-16T21:53:10.308Z'
  tle_line1: 1 20436U 90005A   25197.91192487  .00000885  00000-0  12929-3 0  9991
  tle_line2: 2 20436  98.6691 326.2712 0132003  62.1538 299.2970 14.72893072865957
  apogee_km: 745.0
  perigee_km: 559.0
  period_min: 97.8
  inclination_deg: 98.7
  swath_width_km: 60.0
  num_terminal: 1
  battery_capacity_wh: 1680.0
  storage_capacity_mb: 128000.0
  obs_store_rate_mb_per_min: 18000.0
  downlink_release_rate_mb_per_min: 15000.0
  charge_rate_w: 900.0
  idle_discharge_rate_w: 400.0
  obs_discharge_rate_w: 850.0
  downlink_discharge_rate_w: 100.0
  max_slew_velocity_deg_per_sec: 3.0
  max_slew_acceleration_deg_per_sec2: 1.5
  max_slew_jerk_deg_per_sec3: null
  settling_time_sec: 1.0
  initial_storage_mb: 64000.0
  initial_battery_wh: 840.0
- id: sat_spot_3
  name: SPOT 3
  norad_id: '22823'
  constellation: SPOT
  owner: FR
  tle_epoch: '2025-07-17T03:07:52.483Z'
  tle_line1: 1 22823U 93061A   25198.13046856  .00000087  00000-0  62039-4 0  9993
  tle_line2: 2 22823  98.9058 255.9738 0017725 121.3774 238.9139 14.19958370647283
  apogee_km: 838.0
  perigee_km: 813.0
  period_min: 101.4
  inclination_deg: 98.9
  swath_width_km: 60.0
  num_terminal: 1
  battery_capacity_wh: 1680.0
  storage_capacity_mb: 128000.0
  obs_store_rate_mb_per_min: 18000.0
  downlink_release_rate_mb_per_min: 15000.0
  charge_rate_w: 900.0
  idle_discharge_rate_w: 400.0
  obs_discharge_rate_w: 850.0
  downlink_discharge_rate_w: 100.0
  max_slew_velocity_deg_per_sec: 3.0
  max_slew_acceleration_deg_per_sec2: 1.5
  max_slew_jerk_deg_per_sec3: null
  settling_time_sec: 1.0
  initial_storage_mb: 64000.0
  initial_battery_wh: 840.0
- id: sat_spot_4
  name: SPOT 4
  norad_id: '25260'
  constellation: SPOT
  owner: FR
  tle_epoch: '2025-07-17T05:39:46.780Z'
  tle_line1: 1 25260U 98017A   25198.23595811  .00000284  00000-0  75420-4 0  9995
  tle_line2: 2 25260  98.2516 292.8640 0012757 173.0123 187.1255 14.55715924430816
  apogee_km: 716.0
  perigee_km: 698.0
  period_min: 98.9
  inclination_deg: 98.3
  swath_width_km: 60.0
  num_terminal: 1
  battery_capacity_wh: 1680.0
  storage_capacity_mb: 128000.0
  obs_store_rate_mb_per_min: 18000.0
  downlink_release_rate_mb_per_min: 15000.0
  charge_rate_w: 900.0
  idle_discharge_rate_w: 400.0
  obs_discharge_rate_w: 850.0
  downlink_discharge_rate_w: 100.0
  max_slew_velocity_deg_per_sec: 3.0
  max_slew_acceleration_deg_per_sec2: 1.5
  max_slew_jerk_deg_per_sec3: null
  settling_time_sec: 1.0
  initial_storage_mb: 64000.0
  initial_battery_wh: 840.0
- id: sat_spot_5
  name: SPOT 5
  norad_id: '27421'
  constellation: SPOT
  owner: FR
  tle_epoch: '2025-07-17T03:53:51.792Z'
  tle_line1: 1 27421U 02021A   25198.16240501  .00000240  00000-0  61233-4 0  9990
  tle_line2: 2 27421  98.0335 246.0547 0129284 237.4593 121.4062 14.54324628214173
  apogee_km: 803.0
  perigee_km: 620.0
  period_min: 99.0
  inclination_deg: 98.0
  swath_width_km: 60.0
  num_terminal: 1
  battery_capacity_wh: 1680.0
  storage_capacity_mb: 128000.0
  obs_store_rate_mb_per_min: 18000.0
  downlink_release_rate_mb_per_min: 15000.0
  charge_rate_w: 900.0
  idle_discharge_rate_w: 400.0
  obs_discharge_rate_w: 850.0
  downlink_discharge_rate_w: 100.0
  max_slew_velocity_deg_per_sec: 3.0
  max_slew_acceleration_deg_per_sec2: 1.5
  max_slew_jerk_deg_per_sec3: null
  settling_time_sec: 1.0
  initial_storage_mb: 64000.0
  initial_battery_wh: 840.0
- id: sat_alos
  name: ALOS
  norad_id: '28931'
  constellation: ALOS
  owner: JPN
  tle_epoch: '2025-07-16T21:03:10.196Z'
  tle_line1: 1 28931U 06002A   25197.87720135  .00001025  00000-0  18399-3 0  9999
  tle_line2: 2 28931  98.0856 150.7142 0001216  53.2871 306.8446 14.68802302 38856
  apogee_km: 666.0
  perigee_km: 664.0
  period_min: 98.0
  inclination_deg: 98.1
  swath_width_km: 70.0
  num_terminal: 1
  battery_capacity_wh: 7000.0
  storage_capacity_mb: 256000.0
  obs_store_rate_mb_per_min: 42000.0
  downlink_release_rate_mb_per_min: 36000.0
  charge_rate_w: 4000.0
  idle_discharge_rate_w: 1200.0
  obs_discharge_rate_w: 3500.0
  downlink_discharge_rate_w: 200.0
  max_slew_velocity_deg_per_sec: 0.7
  max_slew_acceleration_deg_per_sec2: 0.1
  max_slew_jerk_deg_per_sec3: null
  settling_time_sec: 2.0
  initial_storage_mb: 128000.0
  initial_battery_wh: 3500.0
- id: sat_worldview-1
  name: WORLDVIEW-1
  norad_id: '32060'
  constellation: WORLDVIEW
  owner: US
  tle_epoch: '2025-07-16T20:40:05.087Z'
  tle_line1: 1 32060U 07041A   25197.86116999  .00005184  00000-0  21545-3 0  9994
  tle_line2: 2 32060  97.3808 317.4823 0000435  20.2772 339.8482 15.24237625991843
  apogee_km: 493.0
  perigee_km: 493.0
  period_min: 94.5
  inclination_deg: 97.40000000000002
  swath_width_km: 13.1
  num_terminal: 1
  battery_capacity_wh: 5000.0
  storage_capacity_mb: 275000.0
  obs_store_rate_mb_per_min: 72000.0
  downlink_release_rate_mb_per_min: 72000.0
  charge_rate_w: 2000.0
  idle_discharge_rate_w: 900.0
  obs_discharge_rate_w: 1800.0
  downlink_discharge_rate_w: 150.0
  max_slew_velocity_deg_per_sec: 4.5
  max_slew_acceleration_deg_per_sec2: 2.5
  max_slew_jerk_deg_per_sec3: null
  settling_time_sec: 0.8
  initial_storage_mb: 137500.0
  initial_battery_wh: 2500.0
- id: sat_alos_deb
  name: ALOS DEB
  norad_id: '35418'
  constellation: ALOS
  owner: JPN
  tle_epoch: '2025-07-16T21:01:28.572Z'
  tle_line1: 1 35418U 06002Z   25197.87602514  .00002912  00000-0  37254-3 0  9994
  tle_line2: 2 35418  98.1595 172.4075 0001159 110.3808 306.4746 14.82166169984367
  apogee_km: 623.0
  perigee_km: 622.0
  period_min: 97.2
  inclination_deg: 98.2
  swath_width_km: 70.0
  num_terminal: 1
  battery_capacity_wh: 7000.0
  storage_capacity_mb: 256000.0
  obs_store_rate_mb_per_min: 42000.0
  downlink_release_rate_mb_per_min: 36000.0
  charge_rate_w: 4000.0
  idle_discharge_rate_w: 1200.0
  obs_discharge_rate_w: 3500.0
  downlink_discharge_rate_w: 200.0
  max_slew_velocity_deg_per_sec: 0.7
  max_slew_acceleration_deg_per_sec2: 0.1
  max_slew_jerk_deg_per_sec3: null
  settling_time_sec: 2.0
  initial_storage_mb: 128000.0
  initial_battery_wh: 3500.0
- id: sat_worldview-2
  name: WORLDVIEW-2
  norad_id: '35946'
  constellation: WORLDVIEW
  owner: US
  tle_epoch: '2025-07-16T22:02:32.711Z'
  tle_line1: 1 35946U 09055A   25197.91843416  .00000074  00000-0  39432-4 0  9992
  tle_line2: 2 35946  98.4806 271.0927 0005213 132.9477 227.2148 14.37280710827473
  apogee_km: 771.0
  perigee_km: 764.0
  period_min: 100.2
  inclination_deg: 98.50000000000001
  swath_width_km: 13.1
  num_terminal: 1
  battery_capacity_wh: 5000.0
  storage_capacity_mb: 275000.0
  obs_store_rate_mb_per_min: 72000.0
  downlink_release_rate_mb_per_min: 72000.0
  charge_rate_w: 2000.0
  idle_discharge_rate_w: 900.0
  obs_discharge_rate_w: 1800.0
  downlink_discharge_rate_w: 150.0
  max_slew_velocity_deg_per_sec: 4.5
  max_slew_acceleration_deg_per_sec2: 2.5
  max_slew_jerk_deg_per_sec3: null
  settling_time_sec: 0.8
  initial_storage_mb: 137500.0
  initial_battery_wh: 2500.0
- id: sat_spot_6
  name: SPOT 6
  norad_id: '38755'
  constellation: SPOT
  owner: FR
  tle_epoch: '2025-07-17T03:33:53.055Z'
  tle_line1: 1 38755U 12047A   25198.14853074  .00000199  00000-0  52635-4 0  9993
  tle_line2: 2 38755  98.1758 265.4974 0001685  96.9036 263.2355 14.58582394684247
  apogee_km: 699.0
  perigee_km: 697.0
  period_min: 98.7
  inclination_deg: 98.2
  swath_width_km: 60.0
  num_terminal: 1
  battery_capacity_wh: 1680.0
  storage_capacity_mb: 128000.0
  obs_store_rate_mb_per_min: 18000.0
  downlink_release_rate_mb_per_min: 15000.0
  charge_rate_w: 900.0
  idle_discharge_rate_w: 400.0
  obs_discharge_rate_w: 850.0
  downlink_discharge_rate_w: 100.0
  max_slew_velocity_deg_per_sec: 3.0
  max_slew_acceleration_deg_per_sec2: 1.5
  max_slew_jerk_deg_per_sec3: null
  settling_time_sec: 1.0
  initial_storage_mb: 64000.0
  initial_battery_wh: 840.0
- id: sat_alos-2
  name: ALOS-2
  norad_id: '39766'
  constellation: ALOS
  owner: JPN
  tle_epoch: '2025-07-17T05:18:40.017Z'
  tle_line1: 1 39766U 14029A   25198.22129650  .00001202  00000-0  16784-3 0  9993
  tle_line2: 2 39766  97.9228 295.1935 0001566  96.4801 263.6589 14.79475547602088
  apogee_km: 632.0
  perigee_km: 630.0
  period_min: 97.3
  inclination_deg: 97.89999999999999
  swath_width_km: 70.0
  num_terminal: 1
  battery_capacity_wh: 7000.0
  storage_capacity_mb: 256000.0
  obs_store_rate_mb_per_min: 42000.0
  downlink_release_rate_mb_per_min: 36000.0
  charge_rate_w: 4000.0
  idle_discharge_rate_w: 1200.0
  obs_discharge_rate_w: 3500.0
  downlink_discharge_rate_w: 200.0
  max_slew_velocity_deg_per_sec: 0.7
  max_slew_acceleration_deg_per_sec2: 0.1
  max_slew_jerk_deg_per_sec3: null
  settling_time_sec: 2.0
  initial_storage_mb: 128000.0
  initial_battery_wh: 3500.0
- id: sat_spot_7
  name: SPOT 7
  norad_id: '40053'
  constellation: SPOT
  owner: AZER
  tle_epoch: '2025-07-17T03:39:48.116Z'
  tle_line1: 1 40053U 14034A   25198.15264024  .00000312  00000-0  73726-4 0  9998
